NESS                    
1 58020U 23155E   26068.76452457  .00019469  00000+0  74047-3 0  9996
2 58020  97.5941 152.6141 0006891 179.8776 180.2465 15.26794015133307
STARLINK-34154          
1 63995U 25101B   26068.21750779  .00034387  00000+0  12535-2 0  9993
2 63995  43.0018   0.5839 0001413 263.4199  96.6491 15.27573910 46980
